[{"OBJECT_NAME":"YAOGAN-35 03A","OBJECT_ID":"2022-088A","EPOCH":"2026-03-09T22:52:05.225664","MEAN_MOTION":15.59934875,"ECCENTRICITY":0.00121612,"INCLINATION":35.007,"RA_OF_ASC_NODE":350.7768,"ARG_OF_PERICENTER":213.8964,"MEAN_ANOMALY":146.0986,"EPHEMERIS_TYPE":0,"CLASSIFICATION_TYPE":"U","NORAD_CAT_ID":53316,"ELEMENT_SET_NO":999,"REV_AT_EPOCH":20247,"BSTAR":0.0013064855,"MEAN_MOTION_DOT":0.00110769,"MEAN_MOTION_DDOT":0},{"OBJECT_NAME":"STARLINK-36694","OBJECT_ID":"2026-022F","EPOCH":"2026-03-09T22:00:01.999584","MEAN_MOTION":15.72360469,"ECCENTRICITY":0.00015317,"INCLINATION":97.2843,"RA_OF_ASC_NODE":102.9045,"ARG_OF_PERICENTER":71.9582,"MEAN_ANOMALY":320.2172,"EPHEMERIS_TYPE":0,"CLASSIFICATION_TYPE":"U","NORAD_CAT_ID":67653,"ELEMENT_SET_NO":999,"REV_AT_EPOCH":607,"BSTAR":-0.016435758,"MEAN_MOTION_DOT":-0.01891106,"MEAN_MOTION_DDOT":0}]
